{
  "type": "FeatureCollection",
  "features": [
    {
      "type": "Feature",
      "properties": {
        "norad_id": 34036,
        "name": "COSMOS 2251 DEB",
        "group": "cosmos-2251-debris",
        "lat": 7.1650218605984755,
        "lon": 156.4440069290859,
        "alt_km": 594.7222374015055,
        "timestamp": "2025-12-10T04:57:30.015430+00:00",
        "meta_object_name": "COSMOS 2251 DEB",
        "meta_object_id": "1993-036HX",
        "meta_epoch": "2025-12-08T22:24:02.971008",
        "meta_mean_motion": 14.94473801,
        "meta_eccentricity": 0.0013483,
        "meta_inclination": 74.0203,
        "meta_ra_of_asc_node": 156.9466,
        "meta_arg_of_pericenter": 190.5423,
        "meta_mean_anomaly": 169.5481,
        "meta_ephemeris_type": 0,
        "meta_classification_type": "U",
        "meta_norad_cat_id": 34036,
        "meta_element_set_no": 999,
        "meta_rev_at_epoch": 88513,
        "meta_bstar": 0.0043012,
        "meta_mean_motion_dot": 0.00046776,
        "meta_mean_motion_ddot": 0,
        "tle_line1": "1 34036U 93036HX  25342.93336772  .00046776  00000+0  43012-2 0  9994",
        "tle_line2": "2 34036  74.0203 156.9466 0013483 190.5423 169.5481 14.94473801885134"
      },
      "geometry": {
        "type": "Point",
        "coordinates": [
          156.4440069290859,
          7.1650218605984755
        ]
      }
    },
    {
      "type": "Feature",
      "properties": {
        "norad_id": 34037,
        "name": "COSMOS 2251 DEB",
        "group": "cosmos-2251-debris",
        "lat": -68.61264338528146,
        "lon": -78.02450660922563,
        "alt_km": 815.235481370416,
        "timestamp": "2025-12-10T04:57:30.015440+00:00",
        "meta_object_name": "COSMOS 2251 DEB",
        "meta_object_id": "1993-036HY",
        "meta_epoch": "2025-12-09T14:23:11.768928",
        "meta_mean_motion": 14.34653174,
        "meta_eccentricity": 0.0052088,
        "meta_inclination": 74.0522,
        "meta_ra_of_asc_node": 56.1899,
        "meta_arg_of_pericenter": 107.1564,
        "meta_mean_anomaly": 253.5301,
        "meta_ephemeris_type": 0,
        "meta_classification_type": "U",
        "meta_norad_cat_id": 34037,
        "meta_element_set_no": 999,
        "meta_rev_at_epoch": 87672,
        "meta_bstar": 0.00082379,
        "meta_mean_motion_dot": 2.341e-05,
        "meta_mean_motion_ddot": 0,
        "tle_line1": "1 34037U 93036HY  25343.59944177  .00002341  00000+0  82379-3 0  9992",
        "tle_line2": "2 34037  74.0522  56.1899 0052088 107.1564 253.5301 14.34653174876721"
      },
      "geometry": {
        "type": "Point",
        "coordinates": [
          -78.02450660922563,
          -68.61264338528146
        ]
      }
    },
    {
      "type": "Feature",
      "properties": {
        "norad_id": 34040,
        "name": "COSMOS 2251 DEB",
        "group": "cosmos-2251-debris",
        "lat": 28.100192025121224,
        "lon": 78.8873626824977,
        "alt_km": 751.6018136817993,
        "timestamp": "2025-12-10T04:57:30.015450+00:00",
        "meta_object_name": "COSMOS 2251 DEB",
        "meta_object_id": "1993-036JB",
        "meta_epoch": "2025-12-09T16:32:34.897056",
        "meta_mean_motion": 13.6836936,
        "meta_eccentricity": 0.0342946,
        "meta_inclination": 73.9558,
        "meta_ra_of_asc_node": 70.9034,
        "meta_arg_of_pericenter": 24.9006,
        "meta_mean_anomaly": 336.8223,
        "meta_ephemeris_type": 0,
        "meta_classification_type": "U",
        "meta_norad_cat_id": 34040,
        "meta_element_set_no": 999,
        "meta_rev_at_epoch": 83558,
        "meta_bstar": 0.00060408,
        "meta_mean_motion_dot": 7.57e-06,
        "meta_mean_motion_ddot": 0,
        "tle_line1": "1 34040U 93036JB  25343.68929279  .00000757  00000+0  60408-3 0  9990",
        "tle_line2": "2 34040  73.9558  70.9034 0342946  24.9006 336.8223 13.68369360835583"
      },
      "geometry": {
        "type": "Point",
        "coordinates": [
          78.8873626824977,
          28.100192025121224
        ]
      }
    },
    {
      "type": "Feature",
      "properties": {
        "norad_id": 34045,
        "name": "COSMOS 2251 DEB",
        "group": "cosmos-2251-debris",
        "lat": -52.05421465094396,
        "lon": -66.06535972091427,
        "alt_km": 786.236606306129,
        "timestamp": "2025-12-10T04:57:30.015460+00:00",
        "meta_object_name": "COSMOS 2251 DEB",
        "meta_object_id": "1993-036JG",
        "meta_epoch": "2025-12-09T09:41:02.078592",
        "meta_mean_motion": 14.34066163,
        "meta_eccentricity": 0.00255458,
        "meta_inclination": 74.0387,
        "meta_ra_of_asc_node": 316.9363,
        "meta_arg_of_pericenter": 41.3757,
        "meta_mean_anomaly": 79.4201,
        "meta_ephemeris_type": 0,
        "meta_classification_type": "U",
        "meta_norad_cat_id": 34045,
        "meta_element_set_no": 999,
        "meta_rev_at_epoch": 87985,
        "meta_bstar": 0.00018172692,
        "meta_mean_motion_dot": 4.84e-06,
        "meta_mean_motion_ddot": 0,
        "tle_line1": "1 34045U 93036JG  25343.40349628  .00000484  00000+0  18173-3 0  9998",
        "tle_line2": "2 34045  74.0387 316.9363 0025545  41.3757  79.4201 14.34066163879850"
      },
      "geometry": {
        "type": "Point",
        "coordinates": [
          -66.06535972091427,
          -52.05421465094396
        ]
      }
    },
    {
      "type": "Feature",
      "properties": {
        "norad_id": 34046,
        "name": "COSMOS 2251 DEB",
        "group": "cosmos-2251-debris",
        "lat": -2.099514645655965,
        "lon": -164.19618229869576,
        "alt_km": 733.0222197633375,
        "timestamp": "2025-12-10T04:57:30.015470+00:00",
        "meta_object_name": "COSMOS 2251 DEB",
        "meta_object_id": "1993-036JH",
        "meta_epoch": "2025-12-09T20:38:45.816864",
        "meta_mean_motion": 14.46435939,
        "meta_eccentricity": 0.0074587,
        "meta_inclination": 74.0396,
        "meta_ra_of_asc_node": 15.849,
        "meta_arg_of_pericenter": 100.139,
        "meta_mean_anomaly": 78.3347,
        "meta_ephemeris_type": 0,
        "meta_classification_type": "U",
        "meta_norad_cat_id": 34046,
        "meta_element_set_no": 999,
        "meta_rev_at_epoch": 87784,
        "meta_bstar": 0.0018161,
        "meta_mean_motion_dot": 6.737e-05,
        "meta_mean_motion_ddot": 0,
        "tle_line1": "1 34046U 93036JH  25343.86025251  .00006737  00000+0  18161-2 0  9995",
        "tle_line2": "2 34046  74.0396  15.8490 0074587 100.1390  78.3347 14.46435939877844"
      },
      "geometry": {
        "type": "Point",
        "coordinates": [
          -164.19618229869576,
          -2.099514645655965
        ]
      }
    },
    {
      "type": "Feature",
      "properties": {
        "norad_id": 34050,
        "name": "COSMOS 2251 DEB",
        "group": "cosmos-2251-debris",
        "lat": 21.206488394567383,
        "lon": -171.95609184043678,
        "alt_km": 871.9533557076993,
        "timestamp": "2025-12-10T04:57:30.015480+00:00",
        "meta_object_name": "COSMOS 2251 DEB",
        "meta_object_id": "1993-036JM",
        "meta_epoch": "2025-12-09T11:34:22.034208",
        "meta_mean_motion": 13.96173291,
        "meta_eccentricity": 0.02145718,
        "meta_inclination": 74.0886,
        "meta_ra_of_asc_node": 15.6404,
        "meta_arg_of_pericenter": 80.7963,
        "meta_mean_anomaly": 35.0338,
        "meta_ephemeris_type": 0,
        "meta_classification_type": "U",
        "meta_norad_cat_id": 34050,
        "meta_element_set_no": 999,
        "meta_rev_at_epoch": 85386,
        "meta_bstar": 0.00085295944,
        "meta_mean_motion_dot": 1.401e-05,
        "meta_mean_motion_ddot": 0,
        "tle_line1": "1 34050U 93036JM  25343.48219947  .00001401  00000+0  85296-3 0  9992",
        "tle_line2": "2 34050  74.0886  15.6404 0214571  80.7963  35.0338 13.96173291853864"
      },
      "geometry": {
        "type": "Point",
        "coordinates": [
          -171.95609184043678,
          21.206488394567383
        ]
      }
    },
    {
      "type": "Feature",
      "properties": {
        "norad_id": 34053,
        "name": "COSMOS 2251 DEB",
        "group": "cosmos-2251-debris",
        "lat": -17.322001623783716,
        "lon": 71.43994366384857,
        "alt_km": 1379.0455734629468,
        "timestamp": "2025-12-10T04:57:30.015490+00:00",
        "meta_object_name": "COSMOS 2251 DEB",
        "meta_object_id": "1993-036JQ",
        "meta_epoch": "2025-12-09T17:19:26.874912",
        "meta_mean_motion": 13.49154382,
        "meta_eccentricity": 0.042204,
        "meta_inclination": 73.8443,
        "meta_ra_of_asc_node": 247.034,
        "meta_arg_of_pericenter": 36.0864,
        "meta_mean_anomaly": 326.7953,
        "meta_ephemeris_type": 0,
        "meta_classification_type": "U",
        "meta_norad_cat_id": 34053,
        "meta_element_set_no": 999,
        "meta_rev_at_epoch": 82643,
        "meta_bstar": 0.0012257,
        "meta_mean_motion_dot": 1.314e-05,
        "meta_mean_motion_ddot": 0,
        "tle_line1": "1 34053U 93036JQ  25343.72183883  .00001314  00000+0  12257-2 0  9990",
        "tle_line2": "2 34053  73.8443 247.0340 0422040  36.0864 326.7953 13.49154382826433"
      },
      "geometry": {
        "type": "Point",
        "coordinates": [
          71.43994366384857,
          -17.322001623783716
        ]
      }
    }
  ]
}